UNKNOWN                 
1 85238U          22285.36916190  .00000068  00000+0  90639-4 0  9994
2 85238  98.9311 239.0599 0064624  94.9909  57.0696 13.87992867450268
UNKNOWN                 
1 85246U          22287.23505792  .00001242  00000+0  49032-3 0  9998
2 85246  98.0872  21.4919 0239130  92.4396 270.4178 14.16132624459230
UNKNOWN                 
1 85266U          22285.89265308  .00015558  00000+0  15135-1 0  9996
2 85266  62.7735  98.4371 3584069 172.0483 195.7976  7.79234008250563
UNKNOWN                 
1 85283U 78098    22286.18702813  .00020591  00000+0  41184-2 0  9994
2 85283  99.6908   8.5411 0024491  23.5713 336.6600 14.61678542372683
UNKNOWN                 
1 85292U          22283.78697926  .00015001  00000+0  35128-2 0  9994
2 85292  65.8299 114.9608 0058440 210.4562 149.3143 14.53669977 18558
UNKNOWN                 
1 85370U          22285.84580866  .00001205  00000+0  11243-2 0  9997
2 85370  99.9751  53.4143 0011055 168.0358 346.4154 13.84187328448815
UNKNOWN                 
1 85373U          22286.14993500  .00000521  00000+0  44506-3 0  9996
2 85373 100.4104 158.0860 0055805  21.5350 131.7209 13.91970570450818
UNKNOWN                 
1 85383U          22285.71737476  .00012057  00000+0  31842-2 0  9992
2 85383  98.6479  22.5539 0102142 248.8293 110.1960 14.45953914418189
UNKNOWN                 
1 85386U          22286.27488153  .00017036  00000+0  40802-2 0  9990
2 85386  98.6471  37.2467 0109276 179.0676 209.3909 14.49970369468784
UNKNOWN                 
1 87014U          22287.45726303  .00002328  00000+0  40838-2 0  9990
2 87014 100.5240 176.2812 0045115 123.1334  52.4647 13.43907681435309
UNKNOWN                 
1 87029U 99025    22283.39547245  .00001066  00000+0  72432-3 0  9990
2 87029  98.8899 339.9746 0082503 242.9603 116.3124 14.00614911430501
UNKNOWN                 
1 87042U 00055    22286.44022021  .00000530  00000+0  35857-3 0  9994
2 87042  98.8481 349.7214 0046198 101.7124 258.9232 14.04066302391533
UNKNOWN                 
1 87051U 76126    22286.76876002  .00001362  00000+0  48579-3 0  9996
2 87051  65.7287 109.7979 0766223 300.0813  52.6378 13.36879318433562
UNKNOWN                 
1 87054U 75052    22282.52072749  .00002042  00000+0  13970-2 0  9994
2 87054 100.0878  14.1612 0018627 207.2570 152.7615 14.00967244453312
UNKNOWN                 
1 87065U 99025    22286.94639947  .00001876  00000+0  23129-2 0  9992
2 87065  98.6893 289.5696 0339197  21.4660 340.0319 13.44635420361021
UNKNOWN                 
1 87071U 68097    22287.35142484  .00001907  00000+0  78007-3 0  9996
2 87071  61.2244  51.8686 0567530  44.2451 320.2517 13.67213905443529
UNKNOWN                 
1 87074U 77121    22286.43904517  .00000261  00000+0  35361-3 0  9996
2 87074  66.1426 182.1918 0151168 187.1531 172.7376 13.70337982444683
UNKNOWN                 
1 87079U          22286.31745970  .01432762  00000+0  16216-1 0  9998
2 87079  70.2537  12.9137 0024106 359.7610   0.3566 15.59149026481188
UNKNOWN                 
1 87091U          22276.16068294  .00447731  00000+0  67229-2 0  9993
2 87091  65.6816 240.1051 0041627  29.9700 330.3820 15.52180065483073
UNKNOWN                 
1 87113U 76126    22287.31190628  .00010385  00000+0  16436-2 0  9991
2 87113  65.6648 235.6070 0332272  94.6409  54.5176 14.41831742465054
UNKNOWN                 
1 87129U 76077    22285.64125285  .00000193  00000+0  17441-2 0  9997
2 87129 102.3195 345.6011 0029959  57.3212 303.0735 12.42143305402961
UNKNOWN                 
1 87159U          22287.24186492  .00001256  00000+0  15528-2 0  9993
2 87159  90.3157  29.9260 0118545  76.9129 284.5229 13.61642242756330
UNKNOWN                 
1 87163U 76126    22287.08733261  .00001905  00000+0  59853-3 0  9995
2 87163  65.6007 178.1742 0709419 210.3862 145.4220 13.51582237420655
UNKNOWN                 
1 87164U          22285.62053504  .00006167  00000+0  16764-2 0  9995
2 87164  65.2086  40.1984 0144291 186.1079 173.8261 14.42222682468070
UNKNOWN                 
1 87203U          22284.31516728  .00023631  00000+0  48453-2 0  9991
2 87203  98.8784 227.1216 0055416 273.4949  85.9911 14.59718587383581
UNKNOWN                 
1 87204U          22287.35166280  .00001829  00000+0  84393-3 0  9992
2 87204  98.6480 155.8424 0051704  91.2815 269.4287 14.21496792460878
UNKNOWN                 
1 87211U          22281.02921781  .00004158  00000+0  15015-2 0  9995
2 87211  98.9997 202.1565 0067875 338.5588  33.6723 14.32848961540702
UNKNOWN                 
1 87213U 99025    22266.40527553  .00021530  00000+0  21028-2 0  9990
2 87213  99.0371 115.9612 0048176 187.4662 172.5841 14.91540015387272
UNKNOWN                 
1 87214U 70025    22280.89017879 -.00000669  00000+0 -58536-3 0  9991
2 87214 100.3176 157.4024 0079438 351.9241   8.0623 13.79425368439835
UNKNOWN                 
1 87228U 99025    22287.32420726  .00011321  00000+0  37320-2 0  9993
2 87228  98.9299  62.2361 0043648 271.0000  88.6185 14.37729047438487
UNKNOWN                 
1 87235U          22286.67877025  .00002927  00000+0  10709-2 0  9995
2 87235  98.9721  77.5652 0148798 328.6103  30.6259 14.27764029420255
UNKNOWN                 
1 87237U 99025    22284.59124807  .00000442  00000+0  37636-3 0  9993
2 87237  99.4054 318.8880 0105880 163.7895 348.3628 13.90203867450751
UNKNOWN                 
1 87239U 81053    22286.35130955  .00004060  00000+0  16508-2 0  9998
2 87239  82.8848 321.5526 0029270  18.6365 341.5885 14.27136221461736
UNKNOWN                 
1 87245U 71015    22287.51775946  .00007623  00000+0  17633-2 0  9994
2 87245  65.6639 203.4111 0523380 317.7504 221.6823 13.95433556451922
UNKNOWN                 
1 87256U 99025    22275.43145272  .00000768  00000+0  48170-3 0  9992
2 87256  98.8390 341.6596 0044214  88.7924 271.8309 14.06962638419520
UNKNOWN                 
1 87271U 71015    22286.29066687  .00006264  00000+0  13804-2 0  9998
2 87271  65.7760  26.0349 0557938 299.1362  55.4957 13.91191679449853
UNKNOWN                 
1 87280U          22283.57150061  .00000349  00000+0  68221-3 0  9994
2 87280  64.6160 218.3263 0111871 183.8935 176.1244 13.47185059377624
UNKNOWN                 
1 87293U 71015    22286.67962291  .00006160  00000+0  14274-2 0  9997
2 87293  65.9093 276.3986 0527385 259.2613  94.8690 13.94798675451535
UNKNOWN                 
1 87300U 70025    22287.06293907  .00001506  00000+0  11823-2 0  9997
2 87300 100.0792 147.2365 0031184 116.5243 243.9118 13.93560275451847
UNKNOWN                 
1 87304U          22281.13306792  .00001968  00000+0  34220-3 0  9995
2 87304  74.0197  61.7778 0021346 324.1684  35.8052 14.68712093475585
UNKNOWN                 
1 87305U 93036    22286.43956322  .00011880  00000+0  20968-2 0  9992
2 87305  73.9941 291.8505 0034665 355.5612   4.5244 14.67127426304229
UNKNOWN                 
1 87320U 71015    22286.04993438  .00001185  00000+0  84473-3 0  9997
2 87320  66.5967 305.6623 0437496  67.1193 297.5435 13.62690636435746
UNKNOWN                 
1 87334U          22287.41047934  .00008266  00000+0  10086-1 0  9995
2 87334  90.0062 270.9531 0076172 177.0711 183.0909 13.64504852227333
UNKNOWN                 
1 87335U          22287.47950215  .00008781  00000+0  10692-1 0  9992
2 87335  89.9936 269.0747 0082853 150.3021 210.2880 13.64407421227403
UNKNOWN                 
1 87397U 94029    22286.25157603  .00039661  00000+0  59373-2 0  9990
2 87397  81.2389 281.5599 0009497 159.5602 200.5986 14.74445263386864
UNKNOWN                 
1 87405U 81053    22287.12868639  .00002519  00000+0  20193-2 0  9998
2 87405  82.7552 245.5349 0058220  43.7494 316.8261 13.89565067450315
UNKNOWN                 
1 87410U 76077    22285.80572214  .00001365  00000+0  12689-1 0  9996
2 87410 102.2601 223.7562 0206217 341.5313  17.8333 12.20211751395834
UNKNOWN                 
1 87416U 81053    22286.62928497  .00005306  00000+0  21096-2 0  9993
2 87416  82.8340 241.6672 0023161  69.5472 290.8197 14.28407998443387
UNKNOWN                 
1 87423U 99057    22282.17116888  .00702565  00000+0  14416-1 0  9991
2 87423  98.7976   1.2188 0020354 323.7812  36.2052 15.43572801388218
UNKNOWN                 
1 87426U          22287.14727684  .00002824  00000+0  14655-2 0  9995
2 87426  65.7848 185.3471 0077818 185.5248 323.7920 14.14772929458346
UNKNOWN                 
1 87433U          22287.35711109  .00001885  00000+0  37021-2 0  9999
2 87433 100.2042  66.0371 0051539 162.4612 197.8307 13.36682907278023
UNKNOWN                 
1 87448U 70025    22281.11398987  .00001417  00000+0  12818-2 0  9990
2 87448 100.4434 336.5383 0065738 316.2767  43.3189 13.84886496448147
UNKNOWN                 
1 87456U 76126    22282.09608219  .00005519  00000+0  95558-3 0  9997
2 87456  65.7954 227.4358 0619048 234.7361 119.4289 13.88573616448999
UNKNOWN                 
1 87468U 93036    22284.72752492  .00020036  00000+0  21504-2 0  9994
2 87468  74.0189  30.2607 0059827  83.7707 277.0284 14.87226092307770
UNKNOWN                 
1 87491U 99025    22286.48194339  .00013209  00000+0  29024-2 0  9998
2 87491  98.6244  12.9123 0066897 112.4957 248.3340 14.56261375413751
UNKNOWN                 
1 87501U 93036    22284.27443852  .00030524  00000+0  78063-2 0  9994
2 87501  74.0298 230.6595 0026850 230.5164 129.3621 14.50060378300916
UNKNOWN                 
1 87517U 76126    22285.34483914  .00005792  00000+0  18805-2 0  9991
2 87517  65.8242 137.9098 0719747 140.2690  28.4583 13.47016452436243
UNKNOWN                 
1 87541U 70025    22286.14879003  .00000345  00000+0  76239-3 0  9992
2 87541  99.8436 174.4202 0058884 172.5784 350.4126 13.34989508427670
UNKNOWN                 
1 87553U 76126    22286.89567244  .00005745  00000+0  19515-2 0  9998
2 87553  65.6733 247.8249 0732775  18.6141 344.0257 13.42901992435465
UNKNOWN                 
1 87557U 73086    22287.45266632  .00003533  00000+0  95602-2 0  9998
2 87557 101.7937 346.2246 0053566  31.6107 328.8199 13.14710861412506
